{"type": "FeatureCollection", "features": [{"type": "Feature", "properties": {"norad_id": 24946, "name": "IRIDIUM 33", "group": "iridium-33-debris", "lat": 39.08964424671117, "lon": 71.4966535926762, "alt_km": 776.7964242106336, "timestamp": "2025-12-11T22:43:47.654259+00:00", "meta": {"OBJECT_NAME": "IRIDIUM 33", "OBJECT_ID": "1997-051C", "EPOCH": "2025-12-11T12:30:24.203808", "MEAN_MOTION": 14.35036393, "ECCENTRICITY": 0.00068891, "INCLINATION": 86.387, "RA_OF_ASC_NODE": 68.7332, "ARG_OF_PERICENTER": 204.7414, "MEAN_ANOMALY": 155.3453, "EPHEMERIS_TYPE": 0, "CLASSIFICATION_TYPE": "U", "NORAD_CAT_ID": 24946, "ELEMENT_SET_NO": 999, "REV_AT_EPOCH": 47817, "BSTAR": 0.00020258749, "MEAN_MOTION_DOT": 5.97e-06, "MEAN_MOTION_DDOT": 0}, "tle": {"line1": "1 24946U 97051C   25345.52111347  .00000597  00000+0  20259-3 0  9991", "line2": "2 24946  86.3870  68.7332 0006889 204.7414 155.3453 14.35036393478171"}}, "geometry": {"type": "Point", "coordinates": [71.4966535926762, 39.08964424671117]}}, {"type": "Feature", "properties": {"norad_id": 33773, "name": "IRIDIUM 33 DEB", "group": "iridium-33-debris", "lat": -27.197451630169038, "lon": 59.07246515174256, "alt_km": 762.3813966687976, "timestamp": "2025-12-11T22:43:47.654306+00:00", "meta": {"OBJECT_NAME": "IRIDIUM 33 DEB", "OBJECT_ID": "1997-051L", "EPOCH": "2025-12-11T11:12:30.293856", "MEAN_MOTION": 14.43253357, "ECCENTRICITY": 0.00123509, "INCLINATION": 86.4014, "RA_OF_ASC_NODE": 61.129, "ARG_OF_PERICENTER": 150.1569, "MEAN_ANOMALY": 210.0339, "EPHEMERIS_TYPE": 0, "CLASSIFICATION_TYPE": "U", "NORAD_CAT_ID": 33773, "ELEMENT_SET_NO": 999, "REV_AT_EPOCH": 88329, "BSTAR": 0.00051200046, "MEAN_MOTION_DOT": 1.743e-05, "MEAN_MOTION_DDOT": 0}, "tle": {"line1": "1 33773U 97051L   25345.46701729  .00001743  00000+0  51200-3 0  9995", "line2": "2 33773  86.4014  61.1290 0012350 150.1569 210.0339 14.43253357883290"}}, "geometry": {"type": "Point", "coordinates": [59.07246515174256, -27.197451630169038]}}, {"type": "Feature", "properties": {"norad_id": 33775, "name": "IRIDIUM 33 DEB", "group": "iridium-33-debris", "lat": 61.04112354593355, "lon": 56.49076776250748, "alt_km": 748.8048891418539, "timestamp": "2025-12-11T22:43:47.654321+00:00", "meta": {"OBJECT_NAME": "IRIDIUM 33 DEB", "OBJECT_ID": "1997-051N", "EPOCH": "2025-12-11T14:47:57.817824", "MEAN_MOTION": 14.41464815, "ECCENTRICITY": 0.00141536, "INCLINATION": 86.3638, "RA_OF_ASC_NODE": 50.0331, "ARG_OF_PERICENTER": 158.1068, "MEAN_ANOMALY": 349.7153, "EPHEMERIS_TYPE": 0, "CLASSIFICATION_TYPE": "U", "NORAD_CAT_ID": 33775, "ELEMENT_SET_NO": 999, "REV_AT_EPOCH": 88124, "BSTAR": 0.00050169229, "MEAN_MOTION_DOT": 1.648e-05, "MEAN_MOTION_DDOT": 0}, "tle": {"line1": "1 33775U 97051N   25345.61664141  .00001648  00000+0  50169-3 0  9997", "line2": "2 33775  86.3638  50.0331 0014153 158.1068 349.7153 14.41464815881249"}}, "geometry": {"type": "Point", "coordinates": [56.49076776250748, 61.04112354593355]}}, {"type": "Feature", "properties": {"norad_id": 33776, "name": "IRIDIUM 33 DEB", "group": "iridium-33-debris", "lat": -59.3465376329274, "lon": 75.01726199782787, "alt_km": 774.6034368422906, "timestamp": "2025-12-11T22:43:47.654336+00:00", "meta": {"OBJECT_NAME": "IRIDIUM 33 DEB", "OBJECT_ID": "1997-051P", "EPOCH": "2025-12-11T13:02:15.250848", "MEAN_MOTION": 14.3823254, "ECCENTRICITY": 0.00142057, "INCLINATION": 86.4037, "RA_OF_ASC_NODE": 81.2783, "ARG_OF_PERICENTER": 194.3086, "MEAN_ANOMALY": 176.4153, "EPHEMERIS_TYPE": 0, "CLASSIFICATION_TYPE": "U", "NORAD_CAT_ID": 33776, "ELEMENT_SET_NO": 999, "REV_AT_EPOCH": 88065, "BSTAR": 0.00050678286, "MEAN_MOTION_DOT": 1.56e-05, "MEAN_MOTION_DDOT": 0}, "tle": {"line1": "1 33776U 97051P   25345.54323207  .00001560  00000+0  50678-3 0  9993", "line2": "2 33776  86.4037  81.2783 0014205 194.3086 176.4153 14.38232540880654"}}, "geometry": {"type": "Point", "coordinates": [75.01726199782787, -59.3465376329274]}}, {"type": "Feature", "properties": {"norad_id": 33777, "name": "IRIDIUM 33 DEB", "group": "iridium-33-debris", "lat": 38.407306393118965, "lon": 38.426113342432615, "alt_km": 707.5986108351844, "timestamp": "2025-12-11T22:43:47.654349+00:00", "meta": {"OBJECT_NAME": "IRIDIUM 33 DEB", "OBJECT_ID": "1997-051Q", "EPOCH": "2025-12-11T11:00:16.115904", "MEAN_MOTION": 14.5560175, "ECCENTRICITY": 0.00050951, "INCLINATION": 86.3785, "RA_OF_ASC_NODE": 35.7605, "ARG_OF_PERICENTER": 254.7842, "MEAN_ANOMALY": 105.2803, "EPHEMERIS_TYPE": 0, "CLASSIFICATION_TYPE": "U", "NORAD_CAT_ID": 33777, "ELEMENT_SET_NO": 999, "REV_AT_EPOCH": 88515, "BSTAR": 0.0016387013, "MEAN_MOTION_DOT": 7.169e-05, "MEAN_MOTION_DDOT": 0}, "tle": {"line1": "1 33777U 97051Q   25345.45851986  .00007169  00000+0  16387-2 0  9993", "line2": "2 33777  86.3785  35.7605 0005095 254.7842 105.2803 14.55601750885153"}}, "geometry": {"type": "Point", "coordinates": [38.426113342432615, 38.407306393118965]}}, {"type": "Feature", "properties": {"norad_id": 33850, "name": "IRIDIUM 33 DEB", "group": "iridium-33-debris", "lat": 40.136600956388314, "lon": 33.61292536291057, "alt_km": 753.080361178273, "timestamp": "2025-12-11T22:43:47.654361+00:00", "meta": {"OBJECT_NAME": "IRIDIUM 33 DEB", "OBJECT_ID": "1997-051T", "EPOCH": "2025-12-11T13:10:35.882688", "MEAN_MOTION": 14.42142771, "ECCENTRICITY": 0.00120846, "INCLINATION": 86.3419, "RA_OF_ASC_NODE": 30.6919, "ARG_OF_PERICENTER": 164.7398, "MEAN_ANOMALY": 330.4343, "EPHEMERIS_TYPE": 0, "CLASSIFICATION_TYPE": "U", "NORAD_CAT_ID": 33850, "ELEMENT_SET_NO": 999, "REV_AT_EPOCH": 88135, "BSTAR": 0.00047038266, "MEAN_MOTION_DOT": 1.568e-05, "MEAN_MOTION_DDOT": 0}, "tle": {"line1": "1 33850U 97051T   25345.54902642  .00001568  00000+0  47038-3 0  9996", "line2": "2 33850  86.3419  30.6919 0012084 164.7398 330.4343 14.42142771881351"}}, "geometry": {"type": "Point", "coordinates": [33.61292536291057, 40.136600956388314]}}, {"type": "Feature", "properties": {"norad_id": 33853, "name": "IRIDIUM 33 DEB", "group": "iridium-33-debris", "lat": -4.4609078583364585, "lon": 170.47188734683417, "alt_km": 809.9324897992628, "timestamp": "2025-12-11T22:43:47.654374+00:00", "meta": {"OBJECT_NAME": "IRIDIUM 33 DEB", "OBJECT_ID": "1997-051W", "EPOCH": "2025-12-11T12:17:32.786592", "MEAN_MOTION": 13.99052032, "ECCENTRICITY": 0.02070266, "INCLINATION": 86.0002, "RA_OF_ASC_NODE": 350.3497, "ARG_OF_PERICENTER": 239.623, "MEAN_ANOMALY": 277.5774, "EPHEMERIS_TYPE": 0, "CLASSIFICATION_TYPE": "U", "NORAD_CAT_ID": 33853, "ELEMENT_SET_NO": 999, "REV_AT_EPOCH": 85328, "BSTAR": 0.0032102135, "MEAN_MOTION_DOT": 5.595e-05, "MEAN_MOTION_DDOT": 0}, "tle": {"line1": "1 33853U 97051W   25345.51218503  .00005595  00000+0  32102-2 0  9991", "line2": "2 33853  86.0002 350.3497 0207026 239.6230 277.5774 13.99052032853282"}}, "geometry": {"type": "Point", "coordinates": [170.47188734683417, -4.4609078583364585]}}, {"type": "Feature", "properties": {"norad_id": 33860, "name": "IRIDIUM 33 DEB", "group": "iridium-33-debris", "lat": -81.55428325388932, "lon": -127.20032856553173, "alt_km": 677.7591146577024, "timestamp": "2025-12-11T22:43:47.654395+00:00", "meta": {"OBJECT_NAME": "IRIDIUM 33 DEB", "OBJECT_ID": "1997-051AD", "EPOCH": "2025-12-11T03:48:48.164256", "MEAN_MOTION": 14.67334001, "ECCENTRICITY": 0.00076792, "INCLINATION": 86.3835, "RA_OF_ASC_NODE": 27.9377, "ARG_OF_PERICENTER": 3.2947, "MEAN_ANOMALY": 58.2985, "EPHEMERIS_TYPE": 0, "CLASSIFICATION_TYPE": "U", "NORAD_CAT_ID": 33860, "ELEMENT_SET_NO": 999, "REV_AT_EPOCH": 88699, "BSTAR": 0.0018344014, "MEAN_MOTION_DOT": 0.00010386, "MEAN_MOTION_DDOT": 0}, "tle": {"line1": "1 33860U 97051AD  25345.15889079  .00010386  00000+0  18344-2 0  9997", "line2": "2 33860  86.3835  27.9377 0007679   3.2947  58.2985 14.67334001886990"}}, "geometry": {"type": "Point", "coordinates": [-127.20032856553173, -81.55428325388932]}}, {"type": "Feature", "properties": {"norad_id": 33862, "name": "IRIDIUM 33 DEB", "group": "iridium-33-debris", "lat": -68.4324259221402, "lon": 28.73788869308121, "alt_km": 699.1785267670621, "timestamp": "2025-12-11T22:43:47.654408+00:00", "meta": {"OBJECT_NAME": "IRIDIUM 33 DEB", "OBJECT_ID": "1997-051AF", "EPOCH": "2025-12-11T15:37:39.995904", "MEAN_MOTION": 14.6944815, "ECCENTRICITY": 0.00535473, "INCLINATION": 86.409, "RA_OF_ASC_NODE": 38.0099, "ARG_OF_PERICENTER": 72.8442, "MEAN_ANOMALY": 94.4625, "EPHEMERIS_TYPE": 0, "CLASSIFICATION_TYPE": "U", "NORAD_CAT_ID": 33862, "ELEMENT_SET_NO": 999, "REV_AT_EPOCH": 88807, "BSTAR": 0.0022606602, "MEAN_MOTION_DOT": 0.00013719, "MEAN_MOTION_DDOT": 0}, "tle": {"line1": "1 33862U 97051AF  25345.65115736  .00013719  00000+0  22607-2 0  9996", "line2": "2 33862  86.4090  38.0099 0053547  72.8442  94.4625 14.69448150888074"}}, "geometry": {"type": "Point", "coordinates": [28.73788869308121, -68.4324259221402]}}, {"type": "Feature", "properties": {"norad_id": 33866, "name": "IRIDIUM 33 DEB", "group": "iridium-33-debris", "lat": 57.70423582763984, "lon": -92.50565671403706, "alt_km": 740.451004565768, "timestamp": "2025-12-11T22:43:47.654422+00:00", "meta": {"OBJECT_NAME": "IRIDIUM 33 DEB", "OBJECT_ID": "1997-051AK", "EPOCH": "2025-12-11T14:00:41.054400", "MEAN_MOTION": 14.2526927, "ECCENTRICITY": 0.01143969, "INCLINATION": 86.2997, "RA_OF_ASC_NODE": 93.5245, "ARG_OF_PERICENTER": 165.0663, "MEAN_ANOMALY": 255.0848, "EPHEMERIS_TYPE": 0, "CLASSIFICATION_TYPE": "U", "NORAD_CAT_ID": 33866, "ELEMENT_SET_NO": 999, "REV_AT_EPOCH": 86794, "BSTAR": 0.0011314221, "MEAN_MOTION_DOT": 2.868e-05, "MEAN_MOTION_DDOT": 0}, "tle": {"line1": "1 33866U 97051AK  25345.58380850  .00002868  00000+0  11314-2 0  9999", "line2": "2 33866  86.2997  93.5245 0114396 165.0663 255.0848 14.25269270867942"}}, "geometry": {"type": "Point", "coordinates": [-92.50565671403706, 57.70423582763984]}}]}